0 COSMOS 712
1 07679U 75016B   13281.17054041  .00000026  00000-0  26146-3 0  7511
2 07679 074.0035 211.3952 0049581 072.6637 287.9854 12.53396143766729
0 COSMOS 712
1 07679U 75016B   13283.20006404 -.00000043  00000-0 -16738-3 0  7525
2 07679 074.0048 208.6742 0049612 069.1413 086.1055 12.53396026766976
0 COSMOS 712
1 07679U 75016B   13285.50511728 -.00000015  00000-0  44686-5 0  7534
2 07679 074.0049 205.5870 0049641 065.6194 047.0684 12.53395842767266
0 COSMOS 712
1 07679U 75016B   13287.80703444  .00000018  00000-0  21030-3 0  7546
2 07679 074.0048 202.5040 0049716 062.1317 353.8495 12.53395634767552
0 COSMOS 712
1 07679U 75016B   13290.13245135  .00000025  00000-0  25425-3 0  7555
2 07679 074.0044 199.3897 0049729 058.5727 046.7012 12.53395607767844
0 COSMOS 712
1 07679U 75016B   13292.20042953  .00000008  00000-0  14798-3 0  7561
2 07679 074.0041 196.6202 0049757 055.4128 017.9197 12.53395893768104
0 COSMOS 712
1 07679U 75016B   13294.44392602 -.00000015  00000-0  81872-5 0  7577
2 07679 074.0039 193.6156 0049817 052.0146 061.0917 12.53396189768385
